STARLINK-36910          
1 68005U 26039V   26064.83334490 -.01453373  63625-3 -30606-2 0  9991
2 68005  42.9982  78.7541 0001890 264.3133  37.7163 15.98027182  2256
STARLINK-36889          
1 68006U 26039W   26064.75001156 -.01485214  66561-3 -30416-2 0  9993
2 68006  42.9983  79.2688 0001648 271.9944 273.1437 15.98529850  2249
STARLINK-36592          
1 68007U 26039X   26064.75001156 -.01471239  65499-3 -29920-2 0  9993
2 68007  42.9982  79.2652 0001676 266.4962 280.2538 15.98651512  2242
STARLINK-36911          
1 68008U 26039Y   26064.75001156 -.01477109  66075-3 -29812-2 0  9997
2 68008  42.9983  79.2608 0001787 265.1765 283.2933 15.98786916  2244
STARLINK-36956          
1 68009U 26039Z   26064.75001156 -.01467069  65337-3 -29403-2 0  9998
2 68009  42.9982  79.2565 0001519 270.7078 279.3889 15.98910092  2248
STARLINK-36953          
1 68010U 26039AA  26064.75001156 -.01457158  64713-3 -28759-2 0  9998
2 68010  42.9981  79.2472 0001695 266.1178 287.5609 15.99178783  2246
STARLINK-36991          
1 68011U 26039AB  26064.75001156 -.01472949  66108-3 -28841-2 0  9996
2 68011  42.9981  79.2429 0001701 268.1757 287.2528 15.99320925  2246
STARLINK-36936          
1 68012U 26039AC  26064.75001156 -.01455847  64883-3 -28084-2 0  9992
2 68012  42.9981  79.2338 0001764 268.7583 290.0979 15.99579572  2244
STARLINK-36967          
1 68013U 26039AD  26064.75001156 -.01463968  65175-3 -29119-2 0  9991
2 68013  42.9980  79.2517 0001672 267.2597 284.5649 15.99042729  2241
STARLINK-36985          
1 68014U 26039AE  26064.75001156 -.01472509  66164-3 -28619-2 0  9996
2 68014  42.9981  79.2386 0001665 271.4890 285.5901 15.99451351  2249
OBJECT A                
1 68015U 26040A   26064.75001156 -.00633725  16204-3 -61994-3 0  9991
2 68015  97.2857  12.5223 0001404  51.5499 307.8857 16.11478767  1734
OBJECT B                
1 68016U 26040B   26064.75001156 -.00512508  10940-3 -49516-3 0  9994
2 68016  97.2857  12.5234 0001565  62.3269 298.7780 16.11648501  1783
OBJECT C                
1 68017U 26040C   26064.75001156 -.00585658  14053-3 -56101-3 0  9998
2 68017  97.2857  12.5238 0001226  59.3320 302.5531 16.11788683  1780
OBJECT D                
1 68018U 26040D   26064.75001156 -.00590948  14248-3 -57422-3 0  9990
2 68018  97.2857  12.5231 0001246  52.3258 307.9363 16.11574581  1781
OBJECT F                
1 68020U 26040F   26064.75001156 -.00656226  17389-3 -62455-3 0  9996
2 68020  97.2855  12.5239 0001490  54.1538 308.4073 16.11895027  1787
OBJECT G                
1 68021U 26040G   26064.75001156 -.00790492  24650-3 -74015-3 0  9995
2 68021  97.2853  12.5245 0001517  55.7296 308.4306 16.12158774  1782
