[{"OBJECT_NAME":"STARLINK-36910","OBJECT_ID":"2026-039V","EPOCH":"2026-03-05T20:00:00.999360","MEAN_MOTION":15.98027182,"ECCENTRICITY":0.000189,"INCLINATION":42.9982,"RA_OF_ASC_NODE":78.7541,"ARG_OF_PERICENTER":264.3133,"MEAN_ANOMALY":37.7163,"EPHEMERIS_TYPE":0,"CLASSIFICATION_TYPE":"U","NORAD_CAT_ID":68005,"ELEMENT_SET_NO":999,"REV_AT_EPOCH":225,"BSTAR":-0.0030606,"MEAN_MOTION_DOT":-0.01453373,"MEAN_MOTION_DDOT":0.00063625},{"OBJECT_NAME":"STARLINK-36889","OBJECT_ID":"2026-039W","EPOCH":"2026-03-05T18:00:00.998784","MEAN_MOTION":15.9852985,"ECCENTRICITY":0.0001648,"INCLINATION":42.9983,"RA_OF_ASC_NODE":79.2688,"ARG_OF_PERICENTER":271.9944,"MEAN_ANOMALY":273.1437,"EPHEMERIS_TYPE":0,"CLASSIFICATION_TYPE":"U","NORAD_CAT_ID":68006,"ELEMENT_SET_NO":999,"REV_AT_EPOCH":224,"BSTAR":-0.0030416,"MEAN_MOTION_DOT":-0.01485214,"MEAN_MOTION_DDOT":0.00066561},{"OBJECT_NAME":"STARLINK-36592","OBJECT_ID":"2026-039X","EPOCH":"2026-03-05T18:00:00.998784","MEAN_MOTION":15.98651512,"ECCENTRICITY":0.0001676,"INCLINATION":42.9982,"RA_OF_ASC_NODE":79.2652,"ARG_OF_PERICENTER":266.4962,"MEAN_ANOMALY":280.2538,"EPHEMERIS_TYPE":0,"CLASSIFICATION_TYPE":"U","NORAD_CAT_ID":68007,"ELEMENT_SET_NO":999,"REV_AT_EPOCH":224,"BSTAR":-0.002992,"MEAN_MOTION_DOT":-0.01471239,"MEAN_MOTION_DDOT":0.00065499},{"OBJECT_NAME":"STARLINK-36911","OBJECT_ID":"2026-039Y","EPOCH":"2026-03-05T18:00:00.998784","MEAN_MOTION":15.98786916,"ECCENTRICITY":0.0001787,"INCLINATION":42.9983,"RA_OF_ASC_NODE":79.2608,"ARG_OF_PERICENTER":265.1765,"MEAN_ANOMALY":283.2933,"EPHEMERIS_TYPE":0,"CLASSIFICATION_TYPE":"U","NORAD_CAT_ID":68008,"ELEMENT_SET_NO":999,"REV_AT_EPOCH":224,"BSTAR":-0.0029812,"MEAN_MOTION_DOT":-0.01477109,"MEAN_MOTION_DDOT":0.00066075},{"OBJECT_NAME":"STARLINK-36956","OBJECT_ID":"2026-039Z","EPOCH":"2026-03-05T18:00:00.998784","MEAN_MOTION":15.98910092,"ECCENTRICITY":0.0001519,"INCLINATION":42.9982,"RA_OF_ASC_NODE":79.2565,"ARG_OF_PERICENTER":270.7078,"MEAN_ANOMALY":279.3889,"EPHEMERIS_TYPE":0,"CLASSIFICATION_TYPE":"U","NORAD_CAT_ID":68009,"ELEMENT_SET_NO":999,"REV_AT_EPOCH":224,"BSTAR":-0.0029403,"MEAN_MOTION_DOT":-0.01467069,"MEAN_MOTION_DDOT":0.00065337},{"OBJECT_NAME":"STARLINK-36953","OBJECT_ID":"2026-039AA","EPOCH":"2026-03-05T18:00:00.998784","MEAN_MOTION":15.99178783,"ECCENTRICITY":0.0001695,"INCLINATION":42.9981,"RA_OF_ASC_NODE":79.2472,"ARG_OF_PERICENTER":266.1178,"MEAN_ANOMALY":287.5609,"EPHEMERIS_TYPE":0,"CLASSIFICATION_TYPE":"U","NORAD_CAT_ID":68010,"ELEMENT_SET_NO":999,"REV_AT_EPOCH":224,"BSTAR":-0.0028759,"MEAN_MOTION_DOT":-0.01457158,"MEAN_MOTION_DDOT":0.00064713},{"OBJECT_NAME":"STARLINK-36991","OBJECT_ID":"2026-039AB","EPOCH":"2026-03-05T18:00:00.998784","MEAN_MOTION":15.99320925,"ECCENTRICITY":0.0001701,"INCLINATION":42.9981,"RA_OF_ASC_NODE":79.2429,"ARG_OF_PERICENTER":268.1757,"MEAN_ANOMALY":287.2528,"EPHEMERIS_TYPE":0,"CLASSIFICATION_TYPE":"U","NORAD_CAT_ID":68011,"ELEMENT_SET_NO":999,"REV_AT_EPOCH":224,"BSTAR":-0.0028841,"MEAN_MOTION_DOT":-0.01472949,"MEAN_MOTION_DDOT":0.00066108},{"OBJECT_NAME":"STARLINK-36936","OBJECT_ID":"2026-039AC","EPOCH":"2026-03-05T18:00:00.998784","MEAN_MOTION":15.99579572,"ECCENTRICITY":0.0001764,"INCLINATION":42.9981,"RA_OF_ASC_NODE":79.2338,"ARG_OF_PERICENTER":268.7583,"MEAN_ANOMALY":290.0979,"EPHEMERIS_TYPE":0,"CLASSIFICATION_TYPE":"U","NORAD_CAT_ID":68012,"ELEMENT_SET_NO":999,"REV_AT_EPOCH":224,"BSTAR":-0.0028084,"MEAN_MOTION_DOT":-0.01455847,"MEAN_MOTION_DDOT":0.00064883},{"OBJECT_NAME":"STARLINK-36967","OBJECT_ID":"2026-039AD","EPOCH":"2026-03-05T18:00:00.998784","MEAN_MOTION":15.99042729,"ECCENTRICITY":0.0001672,"INCLINATION":42.998,"RA_OF_ASC_NODE":79.2517,"ARG_OF_PERICENTER":267.2597,"MEAN_ANOMALY":284.5649,"EPHEMERIS_TYPE":0,"CLASSIFICATION_TYPE":"U","NORAD_CAT_ID":68013,"ELEMENT_SET_NO":999,"REV_AT_EPOCH":224,"BSTAR":-0.0029119,"MEAN_MOTION_DOT":-0.01463968,"MEAN_MOTION_DDOT":0.00065175},{"OBJECT_NAME":"STARLINK-36985","OBJECT_ID":"2026-039AE","EPOCH":"2026-03-05T18:00:00.998784","MEAN_MOTION":15.99451351,"ECCENTRICITY":0.0001665,"INCLINATION":42.9981,"RA_OF_ASC_NODE":79.2386,"ARG_OF_PERICENTER":271.489,"MEAN_ANOMALY":285.5901,"EPHEMERIS_TYPE":0,"CLASSIFICATION_TYPE":"U","NORAD_CAT_ID":68014,"ELEMENT_SET_NO":999,"REV_AT_EPOCH":224,"BSTAR":-0.0028619,"MEAN_MOTION_DOT":-0.01472509,"MEAN_MOTION_DDOT":0.00066164},{"OBJECT_NAME":"OBJECT A","OBJECT_ID":"2026-040A","EPOCH":"2026-03-05T18:00:00.998784","MEAN_MOTION":16.11478767,"ECCENTRICITY":0.0001404,"INCLINATION":97.2857,"RA_OF_ASC_NODE":12.5223,"ARG_OF_PERICENTER":51.5499,"MEAN_ANOMALY":307.8857,"EPHEMERIS_TYPE":0,"CLASSIFICATION_TYPE":"U","NORAD_CAT_ID":68015,"ELEMENT_SET_NO":999,"REV_AT_EPOCH":173,"BSTAR":-0.00061994,"MEAN_MOTION_DOT":-0.00633725,"MEAN_MOTION_DDOT":0.00016204},{"OBJECT_NAME":"OBJECT B","OBJECT_ID":"2026-040B","EPOCH":"2026-03-05T18:00:00.998784","MEAN_MOTION":16.11648501,"ECCENTRICITY":0.0001565,"INCLINATION":97.2857,"RA_OF_ASC_NODE":12.5234,"ARG_OF_PERICENTER":62.3269,"MEAN_ANOMALY":298.778,"EPHEMERIS_TYPE":0,"CLASSIFICATION_TYPE":"U","NORAD_CAT_ID":68016,"ELEMENT_SET_NO":999,"REV_AT_EPOCH":178,"BSTAR":-0.00049516,"MEAN_MOTION_DOT":-0.00512508,"MEAN_MOTION_DDOT":0.0001094},{"OBJECT_NAME":"OBJECT C","OBJECT_ID":"2026-040C","EPOCH":"2026-03-05T18:00:00.998784","MEAN_MOTION":16.11788683,"ECCENTRICITY":0.0001226,"INCLINATION":97.2857,"RA_OF_ASC_NODE":12.5238,"ARG_OF_PERICENTER":59.332,"MEAN_ANOMALY":302.5531,"EPHEMERIS_TYPE":0,"CLASSIFICATION_TYPE":"U","NORAD_CAT_ID":68017,"ELEMENT_SET_NO":999,"REV_AT_EPOCH":178,"BSTAR":-0.00056101,"MEAN_MOTION_DOT":-0.00585658,"MEAN_MOTION_DDOT":0.00014053},{"OBJECT_NAME":"OBJECT D","OBJECT_ID":"2026-040D","EPOCH":"2026-03-05T18:00:00.998784","MEAN_MOTION":16.11574581,"ECCENTRICITY":0.0001246,"INCLINATION":97.2857,"RA_OF_ASC_NODE":12.5231,"ARG_OF_PERICENTER":52.3258,"MEAN_ANOMALY":307.9363,"EPHEMERIS_TYPE":0,"CLASSIFICATION_TYPE":"U","NORAD_CAT_ID":68018,"ELEMENT_SET_NO":999,"REV_AT_EPOCH":178,"BSTAR":-0.00057422,"MEAN_MOTION_DOT":-0.00590948,"MEAN_MOTION_DDOT":0.00014248},{"OBJECT_NAME":"OBJECT F","OBJECT_ID":"2026-040F","EPOCH":"2026-03-05T18:00:00.998784","MEAN_MOTION":16.11895027,"ECCENTRICITY":0.000149,"INCLINATION":97.2855,"RA_OF_ASC_NODE":12.5239,"ARG_OF_PERICENTER":54.1538,"MEAN_ANOMALY":308.4073,"EPHEMERIS_TYPE":0,"CLASSIFICATION_TYPE":"U","NORAD_CAT_ID":68020,"ELEMENT_SET_NO":999,"REV_AT_EPOCH":178,"BSTAR":-0.00062455,"MEAN_MOTION_DOT":-0.00656226,"MEAN_MOTION_DDOT":0.00017389},{"OBJECT_NAME":"OBJECT G","OBJECT_ID":"2026-040G","EPOCH":"2026-03-05T18:00:00.998784","MEAN_MOTION":16.12158774,"ECCENTRICITY":0.0001517,"INCLINATION":97.2853,"RA_OF_ASC_NODE":12.5245,"ARG_OF_PERICENTER":55.7296,"MEAN_ANOMALY":308.4306,"EPHEMERIS_TYPE":0,"CLASSIFICATION_TYPE":"U","NORAD_CAT_ID":68021,"ELEMENT_SET_NO":999,"REV_AT_EPOCH":178,"BSTAR":-0.00074015,"MEAN_MOTION_DOT":-0.00790492,"MEAN_MOTION_DDOT":0.0002465}]
